start=new Date('2021-12-05T00:00:00.000Z').valueOf();
sats=[{"REV_AT_EPOCH":"9519","TLE_LINE2":"2 45391  53.0552 292.1764 0001771  69.7069 290.4110 15.06401257 95190","CLASSIFICATION_TYPE":"U","CENTER_NAME":"EARTH","REF_FRAME":"TEME","INCLINATION":"53.0552","ARG_OF_PERICENTER":"69.7069","TLE_LINE1":"1 45391U 20019AH  21338.60089594  .00001180  00000-0  98115-4 0  9990","MEAN_MOTION_DDOT":"0.0000000000000","ECCENTRICITY":"0.00017710","COUNTRY_CODE":"US","RA_OF_ASC_NODE":"292.1764","APOAPSIS":"548.436","MEAN_MOTION":"15.06401257","FILE":"3232651","SEMIMAJOR_AXIS":"6925.345","LAUNCH_DATE":"2020-03-18","GP_ID":"191100570","SITE":"AFETR","MEAN_MOTION_DOT":"0.00001180","ELEMENT_SET_NO":"999","OBJECT_NAME":"STARLINK-1289","NORAD_CAT_ID":"45391","MEAN_ANOMALY":"290.4110","OBJECT_TYPE":"PAYLOAD","PERIOD":"95.592","OBJECT_ID":"2020-019AH","EPOCH":"2021-12-04T14:25:17.409216","EPHEMERIS_TYPE":"0","DECAY_DATE":null,"RCS_SIZE":"LARGE","TIME_SYSTEM":"UTC","MEAN_ELEMENT_THEORY":"SGP4","BSTAR":"0.00009811500000","PERIAPSIS":"545.983"},{"OBJECT_NAME":"STARLINK-1290","NORAD_CAT_ID":"45392","MEAN_ANOMALY":"275.6557","OBJECT_TYPE":"PAYLOAD","OBJECT_ID":"2020-019AJ","PERIOD":"95.462","EPOCH":"2021-12-04T14:04:25.473216","EPHEMERIS_TYPE":"0","DECAY_DATE":null,"RCS_SIZE":"LARGE","TIME_SYSTEM":"UTC","MEAN_ELEMENT_THEORY":"SGP4","BSTAR":"0.00043443000000","PERIAPSIS":"539.589","REV_AT_EPOCH":"9521","TLE_LINE2":"2 45392  52.9941 288.2515 0001943  84.4654 275.6557 15.08451551 95213","CLASSIFICATION_TYPE":"U","CENTER_NAME":"EARTH","REF_FRAME":"TEME","INCLINATION":"52.9941","ARG_OF_PERICENTER":"84.4654","TLE_LINE1":"1 45392U 20019AJ  21338.58640594  .00006561  00000-0  43443-3 0  9992","MEAN_MOTION_DDOT":"0.0000000000000","ECCENTRICITY":"0.00019430","RA_OF_ASC_NODE":"288.2515","COUNTRY_CODE":"US","APOAPSIS":"542.277","FILE":"3232651","MEAN_MOTION":"15.08451551","SEMIMAJOR_AXIS":"6919.068","GP_ID":"191101320","LAUNCH_DATE":"2020-03-18","SITE":"AFETR","MEAN_MOTION_DOT":"0.00006561","ELEMENT_SET_NO":"999"},{"PERIAPSIS":"546.164","BSTAR":"0.00000686550000","TIME_SYSTEM":"UTC","RCS_SIZE":"LARGE","MEAN_ELEMENT_THEORY":"SGP4","EPOCH":"2021-12-04T21:29:55.167360","DECAY_DATE":null,"EPHEMERIS_TYPE":"0","OBJECT_ID":"2020-019AK","PERIOD":"95.593","OBJECT_TYPE":"PAYLOAD","MEAN_ANOMALY":"290.1687","OBJECT_NAME":"STARLINK-1291","NORAD_CAT_ID":"45393","MEAN_MOTION_DOT":"-0.00000179","ELEMENT_SET_NO":"999","FILE":"3232651","SEMIMAJOR_AXIS":"6925.384","MEAN_MOTION":"15.06388351","LAUNCH_DATE":"2020-03-18","GP_ID":"191102071","SITE":"AFETR","RA_OF_ASC_NODE":"290.8541","COUNTRY_CODE":"US","APOAPSIS":"548.334","ECCENTRICITY":"0.00015670","ARG_OF_PERICENTER":"69.9470","MEAN_MOTION_DDOT":"0.0000000000000","TLE_LINE1":"1 45393U 20019AK  21338.89577740 -.00000179  00000-0  68655-5 0  9993","REF_FRAME":"TEME","CENTER_NAME":"EARTH","INCLINATION":"53.0546","TLE_LINE2":"2 45393  53.0546 290.8541 0001567  69.9470 290.1687 15.06388351 95278","REV_AT_EPOCH":"9527","CLASSIFICATION_TYPE":"U"},{"OBJECT_ID":"2020-019AL","PERIOD":"95.592","OBJECT_TYPE":"PAYLOAD","MEAN_ANOMALY":"307.2878","NORAD_CAT_ID":"45394","OBJECT_NAME":"STARLINK-1292","PERIAPSIS":"545.784","BSTAR":"0.00002465200000","MEAN_ELEMENT_THEORY":"SGP4","TIME_SYSTEM":"UTC","RCS_SIZE":"LARGE","DECAY_DATE":null,"EPHEMERIS_TYPE":"0","EPOCH":"2021-12-04T14:14:41.195904","ECCENTRICITY":"0.00020840","MEAN_MOTION_DDOT":"0.0000000000000","TLE_LINE1":"1 45394U 20019AL  21338.59353236  .00000085  00000-0  24652-4 0  9996","ARG_OF_PERICENTER":"52.8301","INCLINATION":"53.0540","REF_FRAME":"TEME","CENTER_NAME":"EARTH","CLASSIFICATION_TYPE":"U","TLE_LINE2":"2 45394  53.0540 292.2116 0002084  52.8301 307.2878 15.06395479 95200","REV_AT_EPOCH":"9520","ELEMENT_SET_NO":"999","MEAN_MOTION_DOT":"0.00000085","SITE":"AFETR","GP_ID":"191102322","LAUNCH_DATE":"2020-03-18","FILE":"3232651","SEMIMAJOR_AXIS":"6925.362","MEAN_MOTION":"15.06395479","APOAPSIS":"548.671","RA_OF_ASC_NODE":"292.2116","COUNTRY_CODE":"US"},{"OBJECT_NAME":"STARLINK-1297","NORAD_CAT_ID":"45395","MEAN_ANOMALY":"307.9990","PERIOD":"95.593","OBJECT_ID":"2020-019AM","OBJECT_TYPE":"PAYLOAD","EPOCH":"2021-12-04T19:43:46.193088","DECAY_DATE":null,"EPHEMERIS_TYPE":"0","RCS_SIZE":"LARGE","TIME_SYSTEM":"UTC","MEAN_ELEMENT_THEORY":"SGP4","BSTAR":"-0.00010458000000","PERIAPSIS":"545.804","TLE_LINE2":"2 45395  53.0547 291.1919 0002072  52.1186 307.9990 15.06391875 94687","REV_AT_EPOCH":"9468","CLASSIFICATION_TYPE":"U","REF_FRAME":"TEME","CENTER_NAME":"EARTH","INCLINATION":"53.0547","ARG_OF_PERICENTER":"52.1186","MEAN_MOTION_DDOT":"0.0000000000000","TLE_LINE1":"1 45395U 20019AM  21338.82206242 -.00001839  00000-0 -10458-3 0  9995","ECCENTRICITY":"0.00020720","RA_OF_ASC_NODE":"291.1919","COUNTRY_CODE":"US","APOAPSIS":"548.673","FILE":"3232651","MEAN_MOTION":"15.06391875","SEMIMAJOR_AXIS":"6925.373","GP_ID":"191101070","SITE":"AFETR","LAUNCH_DATE":"2020-03-18","MEAN_MOTION_DOT":"-0.00001839","ELEMENT_SET_NO":"999"},{"PERIOD":"95.592","OBJECT_ID":"2020-019AN","OBJECT_TYPE":"PAYLOAD","OBJECT_NAME":"STARLINK-1303","NORAD_CAT_ID":"45396","MEAN_ANOMALY":"302.7885","BSTAR":"0.00006349600000","PERIAPSIS":"545.777","EPOCH":"2021-12-04T14:30:35.569440","DECAY_DATE":null,"EPHEMERIS_TYPE":"0","TIME_SYSTEM":"UTC","RCS_SIZE":"LARGE","MEAN_ELEMENT_THEORY":"SGP4","ARG_OF_PERICENTER":"57.3304","MEAN_MOTION_DDOT":"0.0000000000000","TLE_LINE1":"1 45396U 20019AN  21338.60457835  .00000664  00000-0  63496-4 0  9992","ECCENTRICITY":"0.00020740","REV_AT_EPOCH":"9518","TLE_LINE2":"2 45396  53.0543 292.1583 0002074  57.3304 302.7885 15.06400088 95182","CLASSIFICATION_TYPE":"U","REF_FRAME":"TEME","CENTER_NAME":"EARTH","INCLINATION":"53.0543","SEMIMAJOR_AXIS":"6925.348","FILE":"3232651","MEAN_MOTION":"15.06400088","GP_ID":"191100821","LAUNCH_DATE":"2020-03-18","SITE":"AFETR","MEAN_MOTION_DOT":"0.00000664","ELEMENT_SET_NO":"999","COUNTRY_CODE":"US","RA_OF_ASC_NODE":"292.1583","APOAPSIS":"548.650"},{"ELEMENT_SET_NO":"999","MEAN_MOTION_DOT":"0.00000624","GP_ID":"191101572","LAUNCH_DATE":"2020-03-18","SITE":"AFETR","MEAN_MOTION":"15.06402467","FILE":"3232651","SEMIMAJOR_AXIS":"6925.341","APOAPSIS":"548.666","RA_OF_ASC_NODE":"291.8113","COUNTRY_CODE":"US","ECCENTRICITY":"0.00021080","TLE_LINE1":"1 45397U 20019AP  21338.68198279  .00000624  00000-0  60813-4 0  9991","MEAN_MOTION_DDOT":"0.0000000000000","ARG_OF_PERICENTER":"55.6109","INCLINATION":"53.0542","CENTER_NAME":"EARTH","REF_FRAME":"TEME","CLASSIFICATION_TYPE":"U","REV_AT_EPOCH":"9530","TLE_LINE2":"2 45397  53.0542 291.8113 0002108  55.6109 304.5079 15.06402467 95301","PERIAPSIS":"545.746","BSTAR":"0.00006081300000","MEAN_ELEMENT_THEORY":"SGP4","TIME_SYSTEM":"UTC","RCS_SIZE":"LARGE","EPHEMERIS_TYPE":"0","DECAY_DATE":null,"EPOCH":"2021-12-04T16:22:03.313056","OBJECT_TYPE":"PAYLOAD","PERIOD":"95.592","OBJECT_ID":"2020-019AP","MEAN_ANOMALY":"304.5079","NORAD_CAT_ID":"45397","OBJECT_NAME":"STARLINK-1307"},{"MEAN_ELEMENT_THEORY":"SGP4","TIME_SYSTEM":"UTC","RCS_SIZE":"LARGE","DECAY_DATE":null,"EPHEMERIS_TYPE":"0","EPOCH":"2021-12-04T16:11:27.573216","PERIAPSIS":"545.877","BSTAR":"0.00002740500000","MEAN_ANOMALY":"304.0625","NORAD_CAT_ID":"45398","OBJECT_NAME":"STARLINK-1312","OBJECT_ID":"2020-019AQ","PERIOD":"95.593","OBJECT_TYPE":"PAYLOAD","APOAPSIS":"548.596","RA_OF_ASC_NODE":"291.8413","COUNTRY_CODE":"US","ELEMENT_SET_NO":"999","MEAN_MOTION_DOT":"0.00000126","GP_ID":"191101823","SITE":"AFETR","LAUNCH_DATE":"2020-03-18","FILE":"3232651","SEMIMAJOR_AXIS":"6925.372","MEAN_MOTION":"15.06392430","INCLINATION":"53.0542","REF_FRAME":"TEME","CENTER_NAME":"EARTH","CLASSIFICATION_TYPE":"U","TLE_LINE2":"2 45398  53.0542 291.8413 0001963  56.0551 304.0625 15.06392430 95231","REV_AT_EPOCH":"9523","ECCENTRICITY":"0.00019630","MEAN_MOTION_DDOT":"0.0000000000000","TLE_LINE1":"1 45398U 20019AQ  21338.67462469  .00000126  00000-0  27405-4 0  9993","ARG_OF_PERICENTER":"56.0551"},{"OBJECT_NAME":"STARLINK-1255","NORAD_CAT_ID":"45399","MEAN_ANOMALY":"297.8271","OBJECT_TYPE":"PAYLOAD","OBJECT_ID":"2020-019AR","PERIOD":"95.593","EPOCH":"2021-12-04T02:51:18.701280","EPHEMERIS_TYPE":"0","DECAY_DATE":null,"TIME_SYSTEM":"UTC","RCS_SIZE":"LARGE","MEAN_ELEMENT_THEORY":"SGP4","BSTAR":"0.00000675750000","PERIAPSIS":"546.012","REV_AT_EPOCH":"9534","TLE_LINE2":"2 45399  53.0540 284.3371 0001766  62.2897 297.8271 15.06393055 95345","CLASSIFICATION_TYPE":"U","CENTER_NAME":"EARTH","REF_FRAME":"TEME","INCLINATION":"53.0540","ARG_OF_PERICENTER":"62.2897","TLE_LINE1":"1 45399U 20019AR  21338.11896645 -.00000181  00000-0  67575-5 0  9995","MEAN_MOTION_DDOT":"0.0000000000000","ECCENTRICITY":"0.00017660","RA_OF_ASC_NODE":"284.3371","COUNTRY_CODE":"US","APOAPSIS":"548.458","MEAN_MOTION":"15.06393055","FILE":"3232405","SEMIMAJOR_AXIS":"6925.370","LAUNCH_DATE":"2020-03-18","GP_ID":"191071072","SITE":"AFETR","MEAN_MOTION_DOT":"-0.00000181","ELEMENT_SET_NO":"999"},{"APOAPSIS":"548.670","COUNTRY_CODE":"US","RA_OF_ASC_NODE":"283.3878","LAUNCH_DATE":"2020-03-18","GP_ID":"191101321","SITE":"AFETR","MEAN_MOTION":"15.06389508","FILE":"3232651","SEMIMAJOR_AXIS":"6925.381","ELEMENT_SET_NO":"999","MEAN_MOTION_DOT":"-0.00001381","CLASSIFICATION_TYPE":"U","TLE_LINE2":"2 45400  53.0554 283.3878 0002057  58.8962 301.2229 15.06389508 95309","REV_AT_EPOCH":"9530","INCLINATION":"53.0554","REF_FRAME":"TEME","CENTER_NAME":"EARTH","MEAN_MOTION_DDOT":"0.0000000000000","TLE_LINE1":"1 45400U 20019AS  21338.33274978 -.00001381  00000-0 -73827-4 0  9991","ARG_OF_PERICENTER":"58.8962","ECCENTRICITY":"0.00020570","DECAY_DATE":null,"EPHEMERIS_TYPE":"0","EPOCH":"2021-12-04T07:59:09.580992","MEAN_ELEMENT_THEORY":"SGP4","TIME_SYSTEM":"UTC","RCS_SIZE":"LARGE","BSTAR":"-0.00007382700000","PERIAPSIS":"545.821","NORAD_CAT_ID":"45400","OBJECT_NAME":"STARLINK-1213","MEAN_ANOMALY":"301.2229","OBJECT_ID":"2020-019AS","PERIOD":"95.593","OBJECT_TYPE":"PAYLOAD"}];
